COMMENT,ORIGINATOR,NORAD_CAT_ID,OBJECT_NAME,OBJECT_TYPE,CLASSIFICATION_TYPE,INTLDES,EPOCH,EPOCH_MICROSECONDS,MEAN_MOTION,ECCENTRICITY,INCLINATION,RA_OF_ASC_NODE,ARG_OF_PERICENTER,MEAN_ANOMALY,EPHEMERIS_TYPE,ELEMENT_SET_NO,REV_AT_EPOCH,BSTAR,MEAN_MOTION_DOT,MEAN_MOTION_DDOT,FILE,TLE_LINE0,TLE_LINE1,TLE_LINE2,OBJECT_ID,OBJECT_NUMBER,SEMIMAJOR_AXIS,PERIOD,APOGEE,PERIGEE,DECAYED
"GENERATED VIA SPACETRACK.ORG API","18 SPCS","55096","SPACEBEE-161","PAYLOAD","U","23001CR","2024-03-04 03:02:43","324512","15.35021724","0.0011443","97.4363","128.7819","160.6018","199.5662","0","999","6490","0.0024594","0.00084473","0","4208022","0 SPACEBEE-161","1 55096U 23001CR  24064.12689033  .00084473  00000-0  24594-2 0  9991","2 55096  97.4363 128.7819 0011443 160.6018 199.5662 15.35021724 64907","2023-001CR","55096","6838.993","93.810","468.684","453.032","0"
"GENERATED VIA SPACETRACK.ORG API","18 SPCS","55096","SPACEBEE-161","PAYLOAD","U","23001CR","2024-03-04 17:07:33","431232","15.35050327","0.0011225","97.4365","129.3744","157.8846","202.2884","0","999","6499","0.0011622","0.00039678","0","4208449","0 SPACEBEE-161","1 55096U 23001CR  24064.71358138  .00039678  00000-0  11622-2 0  9990","2 55096  97.4365 129.3744 0011225 157.8846 202.2884 15.35050327 64996","2023-001CR","55096","6838.908","93.808","468.450","453.096","0"
"GENERATED VIA SPACETRACK.ORG API","18 SPCS","55096","SPACEBEE-161","PAYLOAD","U","23001CR","2024-03-04 17:07:33","431232","15.35050327","0.0011225","97.4365","129.3744","157.8846","202.2884","0","999","6499","0.0011622","0.00039678","0","4208633","0 SPACEBEE-161","1 55096U 23001CR  24064.71358138  .00039678  00000-0  11622-2 0  9990","2 55096  97.4365 129.3744 0011225 157.8846 202.2884 15.35050327 64996","2023-001CR","55096","6838.908","93.808","468.450","453.096","0"
"GENERATED VIA SPACETRACK.ORG API","18 SPCS","55096","SPACEBEE-161","PAYLOAD","U","23001CR","2024-03-05 02:30:45","491616","15.35091467","0.0011326","97.4362","129.7682","156.9352","203.2402","0","999","6505","0.001121","0.00038313","0","4209183","0 SPACEBEE-161","1 55096U 23001CR  24065.10469319  .00038313  00000-0  11210-2 0  9996","2 55096  97.4362 129.7682 0011326 156.9352 203.2402 15.35091467 65057","2023-001CR","55096","6838.786","93.805","468.396","452.905","0"
"GENERATED VIA SPACETRACK.ORG API","18 SPCS","55096","SPACEBEE-161","PAYLOAD","U","23001CR","2024-03-05 18:09:23","897376","15.35153463","0.0011386","97.4362","130.4259","154.9238","205.2561","0","999","6515","0.0011388","0.00039004","0","4209922","0 SPACEBEE-161","1 55096U 23001CR  24065.75652659  .00039004  00000-0  11388-2 0  9992","2 55096  97.4362 130.4259 0011386 154.9238 205.2561 15.35153463 65157","2023-001CR","55096","6838.602","93.802","468.253","452.680","0"
"GENERATED VIA SPACETRACK.ORG API","18 SPCS","55096","SPACEBEE-161","PAYLOAD","U","23001CR","2024-03-06 09:48:00","195840","15.35213178","0.0011575","97.436","131.0836","153.5158","206.6679","0","999","6525","0.0012664","0.00043494","0","4211361","0 SPACEBEE-161","1 55096U 23001CR  24066.40833560  .00043494  00000-0  12664-2 0  9993","2 55096  97.4360 131.0836 0011575 153.5158 206.6679 15.35213178 65255","2023-001CR","55096","6838.424","93.798","468.205","452.374","0"
"GENERATED VIA SPACETRACK.ORG API","18 SPCS","55096","SPACEBEE-161","PAYLOAD","U","23001CR","2024-03-06 16:03:26","155008","15.35237783","0.001156","97.4361","131.3467","152.7573","207.4279","0","999","6529","0.0013057","0.00044889","0","4211797","0 SPACEBEE-161","1 55096U 23001CR  24066.66905272  .00044889  00000-0  13057-2 0  9997","2 55096  97.4361 131.3467 0011560 152.7573 207.4279 15.35237783 65292","2023-001CR","55096","6838.351","93.797","468.121","452.311","0"
"GENERATED VIA SPACETRACK.ORG API","18 SPCS","55096","SPACEBEE-161","PAYLOAD","U","23001CR","2024-03-07 03:00:25","823232","15.35272174","0.0011558","97.4359","131.8069","151.3515","208.8366","0","999","6536","0.001156","0.00039751","0","4212721","0 SPACEBEE-161","1 55096U 23001CR  24067.12529888  .00039751  00000-0  11560-2 0  9993","2 55096  97.4359 131.8069 0011558 151.3515 208.8366 15.35272174 65363","2023-001CR","55096","6838.249","93.794","468.018","452.211","0"
"GENERATED VIA SPACETRACK.ORG API","18 SPCS","55096","SPACEBEE-161","PAYLOAD","U","23001CR","2024-03-08 02:28:13","247040","15.35357678","0.0011558","97.4359","132.7934","147.8659","212.3291","0","999","6551","0.0012976","0.0004478","0","4213240","0 SPACEBEE-161","1 55096U 23001CR  24068.10293110  .00044780  00000-0  12976-2 0  9998","2 55096  97.4359 132.7934 0011558 147.8659 212.3291 15.35357678 65510","2023-001CR","55096","6837.995","93.789","467.764","451.957","0"
"GENERATED VIA SPACETRACK.ORG API","18 SPCS","55096","SPACEBEE-161","PAYLOAD","U","23001CR","2024-03-08 10:17:27","960576","15.35387091","0.0011627","97.4358","133.1222","146.8557","213.3417","0","999","6556","0.0012859","0.00044417","0","4214683","0 SPACEBEE-161","1 55096U 23001CR  24068.42879584  .00044417  00000-0  12859-2 0  9995","2 55096  97.4358 133.1222 0011627 146.8557 213.3417 15.35387091 65565","2023-001CR","55096","6837.908","93.787","467.723","451.823","0"
"GENERATED VIA SPACETRACK.ORG API","18 SPCS","55096","SPACEBEE-161","PAYLOAD","U","23001CR","2024-03-08 14:59:00","571488","15.3540017","0.0011615","97.4359","133.3196","146.1245","214.0742","0","999","6559","0.0010931","0.00037728","0","4215142","0 SPACEBEE-161","1 55096U 23001CR  24068.62431217  .00037728  00000-0  10931-2 0  9990","2 55096  97.4359 133.3196 0011615 146.1245 214.0742 15.35400170 65598","2023-001CR","55096","6837.869","93.787","467.676","451.792","0"
"GENERATED VIA SPACETRACK.ORG API","18 SPCS","55096","SPACEBEE-161","PAYLOAD","U","23001CR","2024-03-09 03:29:46","651776","15.3544364","0.0011621","97.4358","133.8456","144.6123","215.5894","0","999","6567","0.0011342","0.00039211","0","4215421","0 SPACEBEE-161","1 55096U 23001CR  24069.14567884  .00039211  00000-0  11342-2 0  9994","2 55096  97.4358 133.8456 0011621 144.6123 215.5894 15.35443640 65678","2023-001CR","55096","6837.740","93.784","467.551","451.659","0"
"GENERATED VIA SPACETRACK.ORG API","18 SPCS","55096","SPACEBEE-161","PAYLOAD","U","23001CR","2024-03-09 09:45:09","141120","15.35475161","0.0011642","97.4356","134.1086","143.8186","216.3847","0","999","6571","0.0014626","0.00050715","0","4216444","0 SPACEBEE-161","1 55096U 23001CR  24069.40635580  .00050715  00000-0  14626-2 0  9992","2 55096  97.4356 134.1086 0011642 143.8186 216.3847 15.35475161 65717","2023-001CR","55096","6837.646","93.782","467.472","451.551","0"
"GENERATED VIA SPACETRACK.ORG API","18 SPCS","55096","SPACEBEE-161","PAYLOAD","U","23001CR","2024-03-09 09:45:09","141120","15.35475161","0.0011642","97.4356","134.1086","143.8186","216.3847","0","999","6571","0.0014626","0.00050715","0","4216790","0 SPACEBEE-161","1 55096U 23001CR  24069.40635580  .00050715  00000-0  14626-2 0  9992","2 55096  97.4356 134.1086 0011642 143.8186 216.3847 15.35475161 65717","2023-001CR","55096","6837.646","93.782","467.472","451.551","0"
"GENERATED VIA SPACETRACK.ORG API","18 SPCS","55096","SPACEBEE-161","PAYLOAD","U","23001CR","2024-03-10 02:57:24","402240","15.35530937","0.0011613","97.4351","134.8319","141.5345","218.6728","0","999","6582","0.0011937","0.00041399","0","4217256","0 SPACEBEE-161","1 55096U 23001CR  24070.12319910  .00041399  00000-0  11937-2 0  9999","2 55096  97.4351 134.8319 0011613 141.5345 218.6728 15.35530937 65826","2023-001CR","55096","6837.481","93.779","467.286","451.406","0"
"GENERATED VIA SPACETRACK.ORG API","18 SPCS","55096","SPACEBEE-161","PAYLOAD","U","23001CR","2024-03-10 02:57:24","402240","15.35530937","0.0011613","97.4351","134.8319","141.5345","218.6728","0","999","6582","0.0011937","0.00041399","0","4218257","0 SPACEBEE-161","1 55096U 23001CR  24070.12319910  .00041399  00000-0  11937-2 0  9999","2 55096  97.4351 134.8319 0011613 141.5345 218.6728 15.35530937 65826","2023-001CR","55096","6837.481","93.779","467.286","451.406","0"
"GENERATED VIA SPACETRACK.ORG API","18 SPCS","55096","SPACEBEE-161","PAYLOAD","U","23001CR","2024-03-10 21:43:27","418080","15.3559236","0.0011655","97.4348","135.6211","138.9233","221.2891","0","999","6594","0.0011236","0.00039029","0","4218864","0 SPACEBEE-161","1 55096U 23001CR  24070.90517845  .00039029  00000-0  11236-2 0  9991","2 55096  97.4348 135.6211 0011655 138.9233 221.2891 15.35592360 65946","2023-001CR","55096","6837.299","93.775","467.132","451.195","0"
"GENERATED VIA SPACETRACK.ORG API","18 SPCS","55096","SPACEBEE-161","PAYLOAD","U","23001CR","2024-03-11 03:58:47","780256","15.35614196","0.0011655","97.4346","135.8842","138.1079","222.1058","0","999","6598","0.001091","0.00037915","0","4219263","0 SPACEBEE-161","1 55096U 23001CR  24071.16583079  .00037915  00000-0  10910-2 0  9992","2 55096  97.4346 135.8842 0011655 138.1079 222.1058 15.35614196 65987","2023-001CR","55096","6837.234","93.774","467.068","451.130","0"
"GENERATED VIA SPACETRACK.ORG API","18 SPCS","55096","SPACEBEE-161","PAYLOAD","U","23001CR","2024-03-11 10:14:07","852128","15.35633729","0.0011675","97.4344","136.1472","137.2605","222.9549","0","999","6602","0.0010395","0.00036136","0","4220034","0 SPACEBEE-161","1 55096U 23001CR  24071.42647977  .00036136  00000-0  10395-2 0  9990","2 55096  97.4344 136.1472 0011675 137.2605 222.9549 15.35633729 66027","2023-001CR","55096","6837.176","93.772","467.023","451.058","0"
"GENERATED VIA SPACETRACK.ORG API","18 SPCS","55096","SPACEBEE-161","PAYLOAD","U","23001CR","2024-03-12 22:12:12","699072","15.35747233","0.0011621","97.4337","137.6599","132.7525","227.4698","0","999","6625","0.0010748","0.00037507","0","4222103","0 SPACEBEE-161","1 55096U 23001CR  24072.92514698  .00037507  00000-0  10748-2 0  9994","2 55096  97.4337 137.6599 0011621 132.7525 227.4698 15.35747233 66253","2023-001CR","55096","6836.839","93.765","466.649","450.759","0"
